ONEWEB-0393             
1 50473U 21132E   23286.18340560  .00000053  00000+0  10284-3 0  9991
2 50473  87.9259 200.1965 0001551  69.1827 290.9470 13.17650597 90609
ONEWEB-0394             
1 50474U 21132F   23286.20149367  .00000135  00000+0  30935-3 0  9993
2 50474  87.9277 169.9712 0001678  79.8579 280.2742 13.18685626 93973
ONEWEB-0395             
1 50475U 21132G   23286.50059102  .00000365  00000+0  99423-3 0  9996
2 50475  87.8987 215.3192 0001583  82.1365 277.9942 13.11414116 88846
ONEWEB-0396             
1 50476U 21132H   23286.19516484  .00000127  00000+0  28971-3 0  9999
2 50476  87.9276 169.9642 0001776  83.3229 276.8106 13.18684758 94013
ONEWEB-0397             
1 50477U 21132J   23286.43755350 -.00000037  00000+0 -12765-3 0  9990
2 50477  87.9277 169.9174 0001764  86.0524 274.0810 13.18686435 94027
ONEWEB-0398             
1 50478U 21132K   23285.85774721  .00000066  00000+0  15016-3 0  9991
2 50478  87.8986 215.4391 0001336  70.6667 289.4605 13.11413739 87385
ONEWEB-0399             
1 50479U 21132L   23285.84315292 -.00000421  00000+0 -12223-2 0  9998
2 50479  87.8989 215.4529 0002256  82.2037 277.9347 13.11418828 87372
ONEWEB-0400             
1 50480U 21132M   23286.41646934  .00000015  00000+0  43056-5 0  9992
2 50480  87.9204 169.9353 0001504  68.5073 291.6220 13.18688885 94027
